ONEWEB-0647             
1 56079U 23043AK  23237.65465935 -.00000128  00000+0 -37444-3 0  9996
2 56079  87.8983 103.6380 0001457 103.9285 256.2007 13.15554819 21454
ONEWEB-0651             
1 56080U 23043AL  23238.03069447  .00001360  00000+0  35797-2 0  9994
2 56080  87.9018 103.5236 0001726 102.7334 257.3990 13.15539201 21503
ONEWEB-0718             
1 56081U 23043AM  23237.91668981  .00011327  00000+0  30057-1 0  9996
2 56081  87.9011 103.6109 0002718  75.1326 125.7962 13.15459431  5216
GSLV R/B                
1 56082U 23043AN  23237.68773080  .00022107  00000+0  47460-3 0  9994
2 56082  87.4101  88.5391 0023420 146.8902 213.3827 15.44275404 23499
ONEWEB-0561             
1 56710U 23068A   23237.65985261  .00000017  00000+0  70336-5 0  9998
2 56710  87.9693 112.1531 0001791 103.8539 256.2801 13.34310960 13710
ONEWEB-0668             
1 56711U 23068B   23237.71892573  .00001743  00000+0  23572-3 0  9994
2 56711  86.7203 100.5136 0012881 239.4707 120.5243 14.78393667 14518
ONEWEB-0676             
1 56712U 23068C   23237.66083026 -.00001163  00000+0 -16383-3 0  9994
2 56712  86.7159 100.4944 0012823 241.7122 118.2805 14.78254793 14501
ONEWEB-0677             
1 56713U 23068D   23238.16667824 -.00009580  00000+0 -19158-1 0  9997
2 56713  87.9615 109.9132 0003062 283.3970 303.4654 13.34705591 14657
